STARLINK-36144          
1 67829U 26033J   26062.75379347  .00276061  00000+0  12665-2 0  9990
2 67829  42.9973 307.8171 0001923 232.1802 127.8895 15.82111527  3688
STARLINK-36611          
1 67830U 26033K   26062.75304042  .00384491  00000+0  17356-2 0  9991
2 67830  42.9974 307.8111 0002295 247.3913 112.6716 15.82176248  3684
STARLINK-36661          
1 67831U 26033L   26062.68916153  .00477072  00000+0  21361-2 0  9995
2 67831  42.9968 308.1928 0001887 273.7959  86.2697 15.82111593  3672
STARLINK-36662          
1 67832U 26033M   26062.75002314  .00019173  00000+0  83507-4 0  9995
2 67832  42.9961 307.0550 0002037 266.8713  23.2559 15.84398287  3705
STARLINK-36659          
1 67833U 26033N   26062.68841285  .00393659  00000+0  17877-2 0  9995
2 67833  42.9969 308.1867 0001706 298.8113  61.2588 15.82023552  3676
STARLINK-36655          
1 67834U 26033P   26062.68766512  .00336999  00000+0  15370-2 0  9995
2 67834  42.9971 308.1808 0001667 254.6530 105.4157 15.82078013  3679
STARLINK-36657          
1 67835U 26033Q   26062.68691583  .00305785  00000+0  13994-2 0  9990
2 67835  42.9971 308.1745 0002018 280.2057  79.8587 15.82086924  3671
STARLINK-36650          
1 67836U 26033R   26062.68616560  .00310916  00000+0  14239-2 0  9998
2 67836  42.9971 308.1679 0001908 264.1566  95.9088 15.82058160  3677
STARLINK-36649          
1 67837U 26033S   26062.68541602  .00319842  00000+0  14615-2 0  9998
2 67837  42.9971 308.1619 0002181 271.8037  88.2585 15.82082816  3676
STARLINK-36654          
1 67838U 26033T   26062.74779651  .00243912  00000+0  11233-2 0  9990
2 67838  42.9969 307.7688 0002377 247.3723 112.6897 15.82114799  3687
STARLINK-36652          
1 67839U 26033U   26062.74704682  .00369715  00000+0  16726-2 0  9995
2 67839  42.9971 307.7626 0002211 262.9852  97.0768 15.82167263  3683
STARLINK-36651          
1 67840U 26033V   26062.68316946  .00331071  00000+0  15115-2 0  9997
2 67840  42.9973 308.1438 0002289 265.6281  94.4329 15.82071005  3675
STARLINK-36656          
1 67841U 26033W   26062.74555052  .00276538  00000+0  12693-2 0  9992
2 67841  42.9978 307.7498 0001900 259.4240 100.6417 15.82100827  3681
STARLINK-36653          
1 67842U 26033X   26062.74480169  .00241805  00000+0  11146-2 0  9990
2 67842  42.9967 307.7444 0001304 236.6510 123.4237 15.82102263  3685
STARLINK-36589          
1 67843U 26033Y   26062.68092058  .00399064  00000+0  18042-2 0  9993
2 67843  42.9972 308.1258 0002004 280.5933  79.4713 15.82105354  3677
STARLINK-36598          
1 67844U 26033Z   26062.74330000  .00409192  00000+0  18410-2 0  9996
2 67844  42.9974 307.7318 0001990 256.1719 103.8932 15.82183123  3682
STARLINK-36606          
1 67845U 26033AA  26062.74254883  .00285240  00000+0  13063-2 0  9996
2 67845  42.9977 307.7249 0001637 249.6818 110.3878 15.82125784  3685
