[{"OBJECT_NAME":"STARLINK-36144","OBJECT_ID":"2026-033J","EPOCH":"2026-03-03T18:05:27.755808","MEAN_MOTION":15.82111527,"ECCENTRICITY":0.0001923,"INCLINATION":42.9973,"RA_OF_ASC_NODE":307.8171,"ARG_OF_PERICENTER":232.1802,"MEAN_ANOMALY":127.8895,"EPHEMERIS_TYPE":0,"CLASSIFICATION_TYPE":"U","NORAD_CAT_ID":67829,"ELEMENT_SET_NO":999,"REV_AT_EPOCH":368,"BSTAR":0.0012665,"MEAN_MOTION_DOT":0.00276061,"MEAN_MOTION_DDOT":0},{"OBJECT_NAME":"STARLINK-36611","OBJECT_ID":"2026-033K","EPOCH":"2026-03-03T18:04:22.692288","MEAN_MOTION":15.82176248,"ECCENTRICITY":0.0002295,"INCLINATION":42.9974,"RA_OF_ASC_NODE":307.8111,"ARG_OF_PERICENTER":247.3913,"MEAN_ANOMALY":112.6716,"EPHEMERIS_TYPE":0,"CLASSIFICATION_TYPE":"U","NORAD_CAT_ID":67830,"ELEMENT_SET_NO":999,"REV_AT_EPOCH":368,"BSTAR":0.0017356,"MEAN_MOTION_DOT":0.00384491,"MEAN_MOTION_DDOT":0},{"OBJECT_NAME":"STARLINK-36661","OBJECT_ID":"2026-033L","EPOCH":"2026-03-03T16:32:23.556192","MEAN_MOTION":15.82111593,"ECCENTRICITY":0.0001887,"INCLINATION":42.9968,"RA_OF_ASC_NODE":308.1928,"ARG_OF_PERICENTER":273.7959,"MEAN_ANOMALY":86.2697,"EPHEMERIS_TYPE":0,"CLASSIFICATION_TYPE":"U","NORAD_CAT_ID":67831,"ELEMENT_SET_NO":999,"REV_AT_EPOCH":367,"BSTAR":0.0021361,"MEAN_MOTION_DOT":0.00477072,"MEAN_MOTION_DDOT":0},{"OBJECT_NAME":"STARLINK-36662","OBJECT_ID":"2026-033M","EPOCH":"2026-03-03T18:00:01.999296","MEAN_MOTION":15.84398287,"ECCENTRICITY":0.0002037,"INCLINATION":42.9961,"RA_OF_ASC_NODE":307.055,"ARG_OF_PERICENTER":266.8713,"MEAN_ANOMALY":23.2559,"EPHEMERIS_TYPE":0,"CLASSIFICATION_TYPE":"U","NORAD_CAT_ID":67832,"ELEMENT_SET_NO":999,"REV_AT_EPOCH":370,"BSTAR":8.3507e-5,"MEAN_MOTION_DOT":0.00019173,"MEAN_MOTION_DDOT":0},{"OBJECT_NAME":"STARLINK-36659","OBJECT_ID":"2026-033N","EPOCH":"2026-03-03T16:31:18.870240","MEAN_MOTION":15.82023552,"ECCENTRICITY":0.0001706,"INCLINATION":42.9969,"RA_OF_ASC_NODE":308.1867,"ARG_OF_PERICENTER":298.8113,"MEAN_ANOMALY":61.2588,"EPHEMERIS_TYPE":0,"CLASSIFICATION_TYPE":"U","NORAD_CAT_ID":67833,"ELEMENT_SET_NO":999,"REV_AT_EPOCH":367,"BSTAR":0.0017877,"MEAN_MOTION_DOT":0.00393659,"MEAN_MOTION_DDOT":0},{"OBJECT_NAME":"STARLINK-36655","OBJECT_ID":"2026-033P","EPOCH":"2026-03-03T16:30:14.266368","MEAN_MOTION":15.82078013,"ECCENTRICITY":0.0001667,"INCLINATION":42.9971,"RA_OF_ASC_NODE":308.1808,"ARG_OF_PERICENTER":254.653,"MEAN_ANOMALY":105.4157,"EPHEMERIS_TYPE":0,"CLASSIFICATION_TYPE":"U","NORAD_CAT_ID":67834,"ELEMENT_SET_NO":999,"REV_AT_EPOCH":367,"BSTAR":0.001537,"MEAN_MOTION_DOT":0.00336999,"MEAN_MOTION_DDOT":0},{"OBJECT_NAME":"STARLINK-36657","OBJECT_ID":"2026-033Q","EPOCH":"2026-03-03T16:29:09.527712","MEAN_MOTION":15.82086924,"ECCENTRICITY":0.0002018,"INCLINATION":42.9971,"RA_OF_ASC_NODE":308.1745,"ARG_OF_PERICENTER":280.2057,"MEAN_ANOMALY":79.8587,"EPHEMERIS_TYPE":0,"CLASSIFICATION_TYPE":"U","NORAD_CAT_ID":67835,"ELEMENT_SET_NO":999,"REV_AT_EPOCH":367,"BSTAR":0.0013994,"MEAN_MOTION_DOT":0.00305785,"MEAN_MOTION_DDOT":0},{"OBJECT_NAME":"STARLINK-36650","OBJECT_ID":"2026-033R","EPOCH":"2026-03-03T16:28:04.707840","MEAN_MOTION":15.8205816,"ECCENTRICITY":0.0001908,"INCLINATION":42.9971,"RA_OF_ASC_NODE":308.1679,"ARG_OF_PERICENTER":264.1566,"MEAN_ANOMALY":95.9088,"EPHEMERIS_TYPE":0,"CLASSIFICATION_TYPE":"U","NORAD_CAT_ID":67836,"ELEMENT_SET_NO":999,"REV_AT_EPOCH":367,"BSTAR":0.0014239,"MEAN_MOTION_DOT":0.00310916,"MEAN_MOTION_DDOT":0},{"OBJECT_NAME":"STARLINK-36649","OBJECT_ID":"2026-033S","EPOCH":"2026-03-03T16:26:59.944128","MEAN_MOTION":15.82082816,"ECCENTRICITY":0.0002181,"INCLINATION":42.9971,"RA_OF_ASC_NODE":308.1619,"ARG_OF_PERICENTER":271.8037,"MEAN_ANOMALY":88.2585,"EPHEMERIS_TYPE":0,"CLASSIFICATION_TYPE":"U","NORAD_CAT_ID":67837,"ELEMENT_SET_NO":999,"REV_AT_EPOCH":367,"BSTAR":0.0014615,"MEAN_MOTION_DOT":0.00319842,"MEAN_MOTION_DDOT":0},{"OBJECT_NAME":"STARLINK-36654","OBJECT_ID":"2026-033T","EPOCH":"2026-03-03T17:56:49.618464","MEAN_MOTION":15.82114799,"ECCENTRICITY":0.0002377,"INCLINATION":42.9969,"RA_OF_ASC_NODE":307.7688,"ARG_OF_PERICENTER":247.3723,"MEAN_ANOMALY":112.6897,"EPHEMERIS_TYPE":0,"CLASSIFICATION_TYPE":"U","NORAD_CAT_ID":67838,"ELEMENT_SET_NO":999,"REV_AT_EPOCH":368,"BSTAR":0.0011233,"MEAN_MOTION_DOT":0.00243912,"MEAN_MOTION_DDOT":0},{"OBJECT_NAME":"STARLINK-36652","OBJECT_ID":"2026-033U","EPOCH":"2026-03-03T17:55:44.845248","MEAN_MOTION":15.82167263,"ECCENTRICITY":0.0002211,"INCLINATION":42.9971,"RA_OF_ASC_NODE":307.7626,"ARG_OF_PERICENTER":262.9852,"MEAN_ANOMALY":97.0768,"EPHEMERIS_TYPE":0,"CLASSIFICATION_TYPE":"U","NORAD_CAT_ID":67839,"ELEMENT_SET_NO":999,"REV_AT_EPOCH":368,"BSTAR":0.0016726,"MEAN_MOTION_DOT":0.00369715,"MEAN_MOTION_DDOT":0},{"OBJECT_NAME":"STARLINK-36651","OBJECT_ID":"2026-033V","EPOCH":"2026-03-03T16:23:45.841344","MEAN_MOTION":15.82071005,"ECCENTRICITY":0.0002289,"INCLINATION":42.9973,"RA_OF_ASC_NODE":308.1438,"ARG_OF_PERICENTER":265.6281,"MEAN_ANOMALY":94.4329,"EPHEMERIS_TYPE":0,"CLASSIFICATION_TYPE":"U","NORAD_CAT_ID":67840,"ELEMENT_SET_NO":999,"REV_AT_EPOCH":367,"BSTAR":0.0015115,"MEAN_MOTION_DOT":0.00331071,"MEAN_MOTION_DDOT":0},{"OBJECT_NAME":"STARLINK-36656","OBJECT_ID":"2026-033W","EPOCH":"2026-03-03T17:53:35.564928","MEAN_MOTION":15.82100827,"ECCENTRICITY":0.00019,"INCLINATION":42.9978,"RA_OF_ASC_NODE":307.7498,"ARG_OF_PERICENTER":259.424,"MEAN_ANOMALY":100.6417,"EPHEMERIS_TYPE":0,"CLASSIFICATION_TYPE":"U","NORAD_CAT_ID":67841,"ELEMENT_SET_NO":999,"REV_AT_EPOCH":368,"BSTAR":0.0012693,"MEAN_MOTION_DOT":0.00276538,"MEAN_MOTION_DDOT":0},{"OBJECT_NAME":"STARLINK-36653","OBJECT_ID":"2026-033X","EPOCH":"2026-03-03T17:52:30.866016","MEAN_MOTION":15.82102263,"ECCENTRICITY":0.0001304,"INCLINATION":42.9967,"RA_OF_ASC_NODE":307.7444,"ARG_OF_PERICENTER":236.651,"MEAN_ANOMALY":123.4237,"EPHEMERIS_TYPE":0,"CLASSIFICATION_TYPE":"U","NORAD_CAT_ID":67842,"ELEMENT_SET_NO":999,"REV_AT_EPOCH":368,"BSTAR":0.0011146,"MEAN_MOTION_DOT":0.00241805,"MEAN_MOTION_DDOT":0},{"OBJECT_NAME":"STARLINK-36589","OBJECT_ID":"2026-033Y","EPOCH":"2026-03-03T16:20:31.538112","MEAN_MOTION":15.82105354,"ECCENTRICITY":0.0002004,"INCLINATION":42.9972,"RA_OF_ASC_NODE":308.1258,"ARG_OF_PERICENTER":280.5933,"MEAN_ANOMALY":79.4713,"EPHEMERIS_TYPE":0,"CLASSIFICATION_TYPE":"U","NORAD_CAT_ID":67843,"ELEMENT_SET_NO":999,"REV_AT_EPOCH":367,"BSTAR":0.0018042,"MEAN_MOTION_DOT":0.00399064,"MEAN_MOTION_DDOT":0},{"OBJECT_NAME":"STARLINK-36598","OBJECT_ID":"2026-033Z","EPOCH":"2026-03-03T17:50:21.120000","MEAN_MOTION":15.82183123,"ECCENTRICITY":0.000199,"INCLINATION":42.9974,"RA_OF_ASC_NODE":307.7318,"ARG_OF_PERICENTER":256.1719,"MEAN_ANOMALY":103.8932,"EPHEMERIS_TYPE":0,"CLASSIFICATION_TYPE":"U","NORAD_CAT_ID":67844,"ELEMENT_SET_NO":999,"REV_AT_EPOCH":368,"BSTAR":0.001841,"MEAN_MOTION_DOT":0.00409192,"MEAN_MOTION_DDOT":0},{"OBJECT_NAME":"STARLINK-36606","OBJECT_ID":"2026-033AA","EPOCH":"2026-03-03T17:49:16.218912","MEAN_MOTION":15.82125784,"ECCENTRICITY":0.0001637,"INCLINATION":42.9977,"RA_OF_ASC_NODE":307.7249,"ARG_OF_PERICENTER":249.6818,"MEAN_ANOMALY":110.3878,"EPHEMERIS_TYPE":0,"CLASSIFICATION_TYPE":"U","NORAD_CAT_ID":67845,"ELEMENT_SET_NO":999,"REV_AT_EPOCH":368,"BSTAR":0.0013063,"MEAN_MOTION_DOT":0.0028524,"MEAN_MOTION_DDOT":0}]
